GLOBALSTAR M070         
1 32264U 07048B   25037.74345565 -.00000094  00000+0  53234-4 0  9996
2 32264  51.9741 165.8861 0000952 121.5293  26.9817 12.62311494798178
GLOBALSTAR M066         
1 32265U 07048C   25037.36037047 -.00000082  00000+0  11562-3 0  9992
2 32265  51.9682  44.9264 0000208 130.3068 338.8549 12.42170376800068
GLOBALSTAR M079         
1 37188U 10054A   25037.76858362 -.00000083  00000+0  11519-3 0  9990
2 37188  52.0025 176.8019 0000939  85.2564  10.4104 12.62270615660662
GLOBALSTAR M074         
1 37189U 10054B   25037.55375091 -.00000088  00000+0  88726-4 0  9991
2 37189  52.0001 176.7988 0001103 106.3218 332.1733 12.62262538660562
GLOBALSTAR M076         
1 37190U 10054C   25037.75356963 -.00000086  00000+0  10060-3 0  9995
2 37190  52.0015 176.3472 0001227  91.4015  57.1334 12.62277565660667
GLOBALSTAR M077         
1 37191U 10054D   25037.57234088 -.00000094  00000+0  56195-4 0  9998
2 37191  52.0068 133.7215 0000796 113.7920 349.0869 12.62270523660653
